1 45553U 20025Y   22365.06054029  .00004066  00000-0  29162-3 0  9994
2 45553  53.0556 274.8464 0001423  60.2773 299.8358 15.06412998149236
1 45553U 20025Y   22365.45862594  .00010059  00000-0  69286-3 0  9991
2 45553  53.0551 273.0585 0001628  64.4258 295.6899 15.06420539148601
1 45553U 20025Y   23001.12208885 -.00005884  00000-0 -37640-3 0  9991
2 45553  53.0537 270.0809 0001007  64.7032 295.4062 15.06404320149392
1 45553U 20025Y   23001.45383385 -.00009258  00000-0 -60367-3 0  9997
2 45553  53.0557 268.5916 0001740  68.4232 291.6942 15.06384541148758
1 45553U 20025Y   23001.45383385 -.00009258  00000-0 -60367-3 0  9997
2 45553  53.0557 268.5916 0001740  68.4232 291.6942 15.06384541149445
1 45553U 20025Y   23001.71922614 -.00007519  00000-0 -48667-3 0  9997
2 45553  53.0542 267.3997 0001674  65.8541 294.2623 15.06378030148793
1 45553U 20025Y   23002.44905210  .00003093  00000-0  22657-3 0  9993
2 45553  53.0552 264.1238 0001643  69.0055 291.1109 15.06385470148903
1 45553U 20025Y   23002.71444299  .00005119  00000-0  36243-3 0  9995
2 45553  53.0552 262.9327 0001729  67.4738 292.6434 15.06387261149631
1 45553U 20025Y   23002.84713891  .00009544  00000-0  65891-3 0  9993
2 45553  53.0550 262.3371 0001613  67.3713 292.7447 15.06388909148966
1 45553U 20025Y   23003.44425710  .00014181  00000-0  96866-3 0  9999
2 45553  53.0550 259.6564 0001670  68.7214 291.3953 15.06413247149055
1 45553U 20025Y   23003.44425710  .00014181  00000-0  96866-3 0  9999
2 45553  53.0550 259.6564 0001670  68.7214 291.3953 15.06413247149741
1 45553U 20025Y   23003.77599079  .00006737  00000-0  47062-3 0  9997
2 45553  53.0551 258.1677 0001712  69.9028 290.2145 15.06408865149790
1 45553U 20025Y   23004.17406927  .00008842  00000-0  61151-3 0  9995
2 45553  53.0552 256.3806 0001659  70.0856 290.0311 15.06415508149163
1 45553U 20025Y   23004.97021566  .00015144  00000-0  10323-2 0  9992
2 45553  53.0552 252.8067 0001656  71.2035 288.9134 15.06438066149974
1 45553U 20025Y   23005.36829877 -.00004131  00000-0 -25853-3 0  9998
2 45553  53.0551 251.0198 0001801  72.9360 287.1826 15.06408034149342
1 45553U 20025Y   23005.36829877 -.00004131  00000-0 -25853-3 0  9998
2 45553  53.0551 251.0198 0001801  72.9360 287.1826 15.06408034150030
1 45553U 20025Y   23005.70004088 -.00005405  00000-0 -34421-3 0  9991
2 45553  53.0548 249.5305 0002953  78.4936 281.6384 15.06392304149394
1 45553U 20025Y   23005.70004088 -.00005405  00000-0 -34421-3 0  9991
2 45553  53.0548 249.5305 0002953  78.4936 281.6384 15.06392304150082
1 45553U 20025Y   23006.36352673  .00010712  00000-0  73751-3 0  9994
2 45553  53.0545 246.5525 0001589  91.9355 268.1816 15.06369599150180
1 45553U 20025Y   23006.69526706  .00012879  00000-0  88251-3 0  9997
2 45553  53.0539 245.0634 0001564  94.0245 266.0923 15.06375502149548
1 45553U 20025Y   23007.09335086  .00013962  00000-0  95464-3 0  9999
2 45553  53.0537 243.2763 0001528  94.2914 265.8249 15.06389705149609
1 45553U 20025Y   23007.62412551  .00014147  00000-0  96662-3 0  9998
2 45553  53.0530 240.8935 0001513  95.8745 264.2416 15.06404488149682
1 45553U 20025Y   23007.62412551  .00014147  00000-0  96662-3 0  9998
2 45553  53.0530 240.8935 0001513  95.8745 264.2416 15.06404488150370
1 45553U 20025Y   23008.35393706  .00008074  00000-0  56016-3 0  9990
2 45553  53.0525 237.6167 0001475  92.9973 267.1184 15.06410650149799
1 45553U 20025Y   23008.35393706  .00008074  00000-0  56016-3 0  9990
2 45553  53.0525 237.6167 0001475  92.9973 267.1184 15.06410650150487
1 45553U 20025Y   23008.88470982  .00004486  00000-0  31979-3 0  9994
2 45553  53.0521 235.2337 0001554  92.7992 267.3174 15.06408050149876
1 45553U 20025Y   23009.01740239  .00005584  00000-0  39338-3 0  9992
2 45553  53.0522 234.6379 0001578  92.2147 267.9023 15.06411687150588
1 45553U 20025Y   23009.34913413  .00004884  00000-0  34646-3 0  9993
2 45553  53.0520 233.1487 0001578  91.5884 268.5286 15.06412230149941
1 45553U 20025Y   23009.87990456  .00004049  00000-0  29043-3 0  9991
2 45553  53.0528 230.7667 0001667  87.1605 272.9575 15.06414450150020
1 45553U 20025Y   23010.01259686  .00003295  00000-0  23989-3 0  9997
2 45553  53.0530 230.1711 0001647  87.5905 272.5273 15.06414429150737
1 45553U 20025Y   23010.60972100 -.00000364  00000-0 -55459-5 0  9990
2 45553  53.0512 227.4894 0001601  90.9290 269.1883 15.06401001150138
1 45553U 20025Y   23010.60972100 -.00000364  00000-0 -55459-5 0  9990
2 45553  53.0512 227.4894 0001601  90.9290 269.1883 15.06401001150824
1 45553U 20025Y   23011.00780280 -.00000505  00000-0 -15028-4 0  9995
2 45553  53.0517 225.7030 0001554  88.2910 271.8257 15.06400417150193
1 45553U 20025Y   23011.87030842  .00000709  00000-0  66448-4 0  9998
2 45553  53.0515 221.8308 0001266  84.2424 275.8709 15.06402105150329
1 45553U 20025Y   23012.00300260  .00001440  00000-0  11558-3 0  9992
2 45553  53.0533 221.2350 0001697  85.9555 274.1628 15.06401226151035
1 45553U 20025Y   23012.60012739  .00000055  00000-0  22577-4 0  9994
2 45553  53.0530 218.5543 0001519  92.0800 268.0363 15.06394236151120
1 45553U 20025Y   23012.93186175  .00000318  00000-0  40254-4 0  9990
2 45553  53.0537 217.0651 0001462  87.5632 272.5524 15.06395871150483
1 45553U 20025Y   23013.59533128 -.00000444  00000-0 -10876-4 0  9996
2 45553  53.0543 214.0865 0001538  91.4363 268.6802 15.06404606150586
1 45553U 20025Y   23013.92708310  .00001100  00000-0  92865-4 0  9996
2 45553  53.0545 212.5975 0004862  85.8041 274.3503 15.06388658150632
1 45553U 20025Y   23013.92708310  .00001100  00000-0  92865-4 0  9996
2 45553  53.0545 212.5975 0004862  85.8041 274.3503 15.06388658151329
1 45553U 20025Y   23014.25882913 -.00009449  00000-0 -61704-3 0  9998
2 45553  53.0539 211.1083 0003012  91.4719 268.6615 15.06348647151377
1 45553U 20025Y   23014.78956673  .00011372  00000-0  78056-3 0  9995
2 45553  53.0536 208.7253 0002445  97.7380 262.3887 15.06424675151454
1 45553U 20025Y   23014.92227569 -.00000042  00000-0  16062-4 0  9999
2 45553  53.0533 208.1298 0001515  93.7760 266.3403 15.06390005151478
1 45553U 20025Y   23015.51939943  .00000602  00000-0  59342-4 0  9990
2 45553  53.0522 205.4484 0001690  99.2552 260.8628 15.06392892150874
1 45553U 20025Y   23015.78479931  .00003592  00000-0  26008-3 0  9998
2 45553  53.0545 204.2584 0001739  95.9503 264.1685 15.06377237151608
1 45553U 20025Y   23015.85113941  .00000830  00000-0  74667-4 0  9999
2 45553  53.0541 203.9597 0001917 102.7236 257.3967 15.06388233150921
1 45553U 20025Y   23015.85113941  .00000830  00000-0  74667-4 0  9999
2 45553  53.0541 203.9597 0001917 102.7236 257.3967 15.06388233151618
1 45553U 20025Y   23016.51460905  .00002421  00000-0  18138-3 0  9996
2 45553  53.0540 200.9816 0001598  94.5905 265.5267 15.06393170151029
1 45553U 20025Y   23016.91268836  .00003111  00000-0  22768-3 0  9990
2 45553  53.0540 199.1944 0001545  95.5217 264.5948 15.06398878151080
1 45553U 20025Y   23016.91268836  .00003111  00000-0  22768-3 0  9990
2 45553  53.0540 199.1944 0001545  95.5217 264.5948 15.06398878151776
1 45553U 20025Y   23017.50980644  .00004553  00000-0  32432-3 0  9994
2 45553  53.0541 196.5140 0001481  93.5367 266.5791 15.06404743151170
1 45553U 20025Y   23017.84153612  .00005542  00000-0  39052-3 0  9992
2 45553  53.0538 195.0249 0001463  91.7907 268.3250 15.06411579151221
1 45553U 20025Y   23017.90788210  .00006159  00000-0  43184-3 0  9993
2 45553  53.0535 194.7269 0001473  91.2884 268.8274 15.06415590151921
1 45553U 20025Y   23018.50500373  .00001743  00000-0  13588-3 0  9991
2 45553  53.0536 192.0453 0001592 103.2173 256.8994 15.06406459151329
1 45553U 20025Y   23018.50500373  .00001743  00000-0  13588-3 0  9991
2 45553  53.0536 192.0453 0001592 103.2173 256.8994 15.06406459152016
1 45553U 20025Y   23018.77038958  .00002017  00000-0  15420-3 0  9997
2 45553  53.0538 190.8558 0001355  90.8318 269.2826 15.06408180151361
1 45553U 20025Y   23019.50020400 -.00002487  00000-0 -14813-3 0  9990
2 45553  53.0523 187.5789 0001416  91.7598 268.3553 15.06397715151472
1 45553U 20025Y   23019.50020400 -.00002487  00000-0 -14813-3 0  9990
2 45553  53.0523 187.5789 0001416  91.7598 268.3553 15.06397715152169
1 45553U 20025Y   23020.16367528  .00001342  00000-0  10899-3 0  9996
2 45553  53.0560 184.6017 0001658  90.3649 269.7530 15.06397476151570
1 45553U 20025Y   23020.69444552  .00002265  00000-0  17089-3 0  9990
2 45553  53.0555 182.2187 0001382  89.7606 270.3541 15.06404044152341
1 45553U 20025Y   23021.42426569  .00002108  00000-0  16040-3 0  9992
2 45553  53.0548 178.9425 0001320  88.7636 271.3504 15.06393744152450
1 45553U 20025Y   23022.68486078 -.00000440  00000-0 -10650-4 0  9993
2 45553  53.0538 173.2826 0001170  87.9805 272.1318 15.06392531152640
1 45553U 20025Y   23023.74640919  .00000781  00000-0  71317-4 0  9990
2 45553  53.0538 168.5186 0001349  67.8622 292.2510 15.06396523152808
1 45553U 20025Y   23024.74160398  .00004794  00000-0  34038-3 0  9995
2 45553  53.0540 164.0499 0001342  71.0720 289.0415 15.06412435152953
1 45553U 20025Y   23025.33873514 -.00000589  00000-0 -20678-4 0  9998
2 45553  53.0543 161.3691 0001199  75.7239 284.3883 15.06393058153043
1 45553U 20025Y   23025.53777490 -.00000164  00000-0  78719-5 0  9994
2 45553  53.0544 160.4751 0001273  85.4276 274.6858 15.06395268152388
1 45553U 20025Y   23025.73681413  .00001024  00000-0  87615-4 0  9994
2 45553  53.0543 159.5818 0001263  74.5848 285.5280 15.06399663152410
1 45553U 20025Y   23026.59931923  .00001162  00000-0  96859-4 0  9996
2 45553  53.0539 155.7103 0001218  79.8239 280.2888 15.06407738152545
1 45553U 20025Y   23026.66566587  .00003055  00000-0  22383-3 0  9997
2 45553  53.0538 155.4124 0001208  80.6068 279.5058 15.06407019153243
1 45553U 20025Y   23027.32914276  .00001376  00000-0  11125-3 0  9999
2 45553  53.0545 152.4350 0001131  96.3891 263.7227 15.06392249153344
1 45553U 20025Y   23027.59453099  .00001846  00000-0  14281-3 0  9997
2 45553  53.0535 151.2427 0001329  77.5852 282.5286 15.06395567152699
1 45553U 20025Y   23027.66087730  .00002297  00000-0  17308-3 0  9994
2 45553  53.0536 150.9446 0001308  78.7355 281.3781 15.06397361152708
1 45553U 20025Y   23028.52338849  .00002644  00000-0  19630-3 0  9996
2 45553  53.0542 147.0744 0001486  77.9060 282.2096 15.06399281153527
1 45553U 20025Y   23028.58973419  .00002880  00000-0  21213-3 0  9992
2 45553  53.0538 146.7755 0001407  82.5115 277.6034 15.06401090152842
1 45553U 20025Y   23029.65127798  .00004493  00000-0  32028-3 0  9990
2 45553  53.0541 142.0097 0001417  88.0395 272.0756 15.06409342153003
1 45553U 20025Y   23029.65127798  .00004493  00000-0  32028-3 0  9990
2 45553  53.0541 142.0097 0001417  88.0395 272.0756 15.06409342153698
1 45553U 20025Y   23030.44744354 -.00000097  00000-0  12410-4 0  9993
2 45553  53.0535 138.4351 0001389  96.2163 263.8984 15.06398395153815
1 45553U 20025Y   23030.51379130  .00000557  00000-0  56258-4 0  9995
2 45553  53.0539 138.1374 0001383  94.4930 265.6217 15.06398725153138
1 45553U 20025Y   23031.50899341  .00000964  00000-0  83632-4 0  9994
2 45553  53.0541 133.6705 0001313  92.8431 267.2708 15.06400438153284
1 45553U 20025Y   23031.64168422  .00001912  00000-0  14718-3 0  9990
2 45553  53.0537 133.0746 0001293  88.5329 271.5808 15.06406270153305
1 45553U 20025Y   23031.64168422  .00001912  00000-0  14718-3 0  9990
2 45553  53.0537 133.0746 0001293  88.5329 271.5808 15.06406270153990
1 45553U 20025Y   23031.97342016  .00001432  00000-0  11502-3 0  9994
2 45553  53.0533 131.5845 0001200  90.9012 269.2115 15.06399505154047
